[{"ORDINAL":"1","COMMENT":"GENERATED VIA SPACETRACK.ORG API","ORIGINATOR":"JSPOC","NORAD_CAT_ID":"39757","OBJECT_NAME":"DELTA 4 DEB","OBJECT_TYPE":"DEBRIS","CLASSIFICATION_TYPE":"U","INTLDES":"14026F","EPOCH":"2014-05-20 21:13:32","EPOCH_MICROSECONDS":"303424","MEAN_MOTION":"15.09291628","ECCENTRICITY":"0.0510318","INCLINATION":"52.5823","RA_OF_ASC_NODE":"119.0516","ARG_OF_PERICENTER":"88.29","MEAN_ANOMALY":"282.7085","EPHEMERIS_TYPE":"0","ELEMENT_SET_NO":"1","REV_AT_EPOCH":"49","BSTAR":"0.074885","MEAN_MOTION_DOT":"0.55503437","MEAN_MOTION_DDOT":"9.4983e-06","FILE":"1686179","TLE_LINE0":"0 DELTA 4 DEB","TLE_LINE1":"1 39757U 14026F   14140.88440166  .55503437  94983-5  74885-1 0    18","TLE_LINE2":"2 39757 052.5823 119.0516 0510318 088.2900 282.7085 15.09291628   494","OBJECT_ID":"2014-026F","OBJECT_NUMBER":"39757"},{"ORDINAL":"1","COMMENT":"GENERATED VIA SPACETRACK.ORG API","ORIGINATOR":"JSPOC","NORAD_CAT_ID":"39686","OBJECT_NAME":"DRAGON CRS-3 DEB","OBJECT_TYPE":"DEBRIS","CLASSIFICATION_TYPE":"U","INTLDES":"14022G","EPOCH":"2014-04-29 20:55:05","EPOCH_MICROSECONDS":"377727","MEAN_MOTION":"16.41145907","ECCENTRICITY":"0.0011102","INCLINATION":"51.615","RA_OF_ASC_NODE":"335.2899","ARG_OF_PERICENTER":"266.3459","MEAN_ANOMALY":"93.7919","EPHEMERIS_TYPE":"0","ELEMENT_SET_NO":"36","REV_AT_EPOCH":"176","BSTAR":"0.001527","MEAN_MOTION_DOT":"0.25103146","MEAN_MOTION_DDOT":"1.2419e-05","FILE":"1674482","TLE_LINE0":"0 DRAGON CRS-3 DEB","TLE_LINE1":"1 39686U 14022G   14119.87159002  .25103146  12419-4  15270-2 0   361","TLE_LINE2":"2 39686 051.6150 335.2899 0011102 266.3459 093.7919 16.41145907  1761","OBJECT_ID":"2014-022G","OBJECT_NUMBER":"39686"},{"ORDINAL":"2","COMMENT":"GENERATED VIA SPACETRACK.ORG API","ORIGINATOR":"JSPOC","NORAD_CAT_ID":"39686","OBJECT_NAME":"DRAGON CRS-3 DEB","OBJECT_TYPE":"DEBRIS","CLASSIFICATION_TYPE":"U","INTLDES":"14022G","EPOCH":"2014-04-29 19:29:15","EPOCH_MICROSECONDS":"85824","MEAN_MOTION":"16.37722423","ECCENTRICITY":"0.0013188","INCLINATION":"51.6362","RA_OF_ASC_NODE":"335.6158","ARG_OF_PERICENTER":"272.6643","MEAN_ANOMALY":"95.3498","EPHEMERIS_TYPE":"0","ELEMENT_SET_NO":"35","REV_AT_EPOCH":"175","BSTAR":"0.0018783","MEAN_MOTION_DOT":"0.20561129","MEAN_MOTION_DDOT":"1.2347e-05","FILE":"1674465","TLE_LINE0":"0 DRAGON CRS-3 DEB","TLE_LINE1":"1 39686U 14022G   14119.81198016  .20561129  12347-4  18783-2 0   358","TLE_LINE2":"2 39686 051.6362 335.6158 0013188 272.6643 095.3498 16.37722423  1757","OBJECT_ID":"2014-022G","OBJECT_NUMBER":"39686"},{"ORDINAL":"3","COMMENT":"GENERATED VIA SPACETRACK.ORG API","ORIGINATOR":"JSPOC","NORAD_CAT_ID":"39686","OBJECT_NAME":"DRAGON CRS-3 DEB","OBJECT_TYPE":"DEBRIS","CLASSIFICATION_TYPE":"U","INTLDES":"14022G","EPOCH":"2014-04-29 00:17:39","EPOCH_MICROSECONDS":"683904","MEAN_MOTION":"16.20184742","ECCENTRICITY":"0.0015647","INCLINATION":"51.6434","RA_OF_ASC_NODE":"340.058","ARG_OF_PERICENTER":"276.2308","MEAN_ANOMALY":"84.1689","EPHEMERIS_TYPE":"0","ELEMENT_SET_NO":"34","REV_AT_EPOCH":"162","BSTAR":"0.0024722","MEAN_MOTION_DOT":"0.05130884","MEAN_MOTION_DDOT":"1.1855e-05","FILE":"1674265","TLE_LINE0":"0 DRAGON CRS-3 DEB","TLE_LINE1":"1 39686U 14022G   14119.01226486  .05130884  11855-4  24722-2 0   348","TLE_LINE2":"2 39686 051.6434 340.0580 0015647 276.2308 084.1689 16.20184742  1628","OBJECT_ID":"2014-022G","OBJECT_NUMBER":"39686"},{"ORDINAL":"4","COMMENT":"GENERATED VIA SPACETRACK.ORG API","ORIGINATOR":"JSPOC","NORAD_CAT_ID":"39686","OBJECT_NAME":"DRAGON CRS-3 DEB","OBJECT_TYPE":"DEBRIS","CLASSIFICATION_TYPE":"U","INTLDES":"14022G","EPOCH":"2014-04-28 22:48:55","EPOCH_MICROSECONDS":"733183","MEAN_MOTION":"16.18892968","ECCENTRICITY":"0.0009975","INCLINATION":"51.6619","RA_OF_ASC_NODE":"340.4129","ARG_OF_PERICENTER":"259.9357","MEAN_ANOMALY":"100.629","EPHEMERIS_TYPE":"0","ELEMENT_SET_NO":"33","REV_AT_EPOCH":"161","BSTAR":"0.0021698","MEAN_MOTION_DOT":"0.04008019","MEAN_MOTION_DDOT":"1.1809e-05","FILE":"1674046","TLE_LINE0":"0 DRAGON CRS-3 DEB","TLE_LINE1":"1 39686U 14022G   14118.95064506  .04008019  11809-4  21698-2 0   333","TLE_LINE2":"2 39686 051.6619 340.4129 0009975 259.9357 100.6290 16.18892968  1619","OBJECT_ID":"2014-022G","OBJECT_NUMBER":"39686"},{"ORDINAL":"5","COMMENT":"GENERATED VIA SPACETRACK.ORG API","ORIGINATOR":"JSPOC","NORAD_CAT_ID":"39686","OBJECT_NAME":"DRAGON CRS-3 DEB","OBJECT_TYPE":"DEBRIS","CLASSIFICATION_TYPE":"U","INTLDES":"14022G","EPOCH":"2014-04-28 15:24:00","EPOCH_MICROSECONDS":"792576","MEAN_MOTION":"16.16063409","ECCENTRICITY":"0.0016609","INCLINATION":"51.646","RA_OF_ASC_NODE":"342.081","ARG_OF_PERICENTER":"270.9262","MEAN_ANOMALY":"88.9925","EPHEMERIS_TYPE":"0","ELEMENT_SET_NO":"32","REV_AT_EPOCH":"156","BSTAR":"0.0023351","MEAN_MOTION_DOT":"0.03551271","MEAN_MOTION_DDOT":"1.1736e-05","FILE":"1673878","TLE_LINE0":"0 DRAGON CRS-3 DEB","TLE_LINE1":"1 39686U 14022G   14118.64167584  .03551271  11736-4  23351-2 0   327","TLE_LINE2":"2 39686 051.6460 342.0810 0016609 270.9262 088.9925 16.16063409  1563","OBJECT_ID":"2014-022G","OBJECT_NUMBER":"39686"},{"ORDINAL":"1","COMMENT":"GENERATED VIA SPACETRACK.ORG API","ORIGINATOR":"JSPOC","NORAD_CAT_ID":"39687","OBJECT_NAME":"DRAGON CRS-3 DEB","OBJECT_TYPE":"DEBRIS","CLASSIFICATION_TYPE":"U","INTLDES":"14022H","EPOCH":"2014-04-28 01:31:41","EPOCH_MICROSECONDS":"737727","MEAN_MOTION":"16.31705862","ECCENTRICITY":"0.0016772","INCLINATION":"51.6301","RA_OF_ASC_NODE":"344.9059","ARG_OF_PERICENTER":"277.1771","MEAN_ANOMALY":"82.941","EPHEMERIS_TYPE":"0","ELEMENT_SET_NO":"27","REV_AT_EPOCH":"147","BSTAR":"0.0025211","MEAN_MOTION_DOT":"0.14679393","MEAN_MOTION_DDOT":"1.2206e-05","FILE":"1673629","TLE_LINE0":"0 DRAGON CRS-3 DEB","TLE_LINE1":"1 39687U 14022H   14118.06367752  .14679393  12206-4  25211-2 0   275","TLE_LINE2":"2 39687 051.6301 344.9059 0016772 277.1771 082.9410 16.31705862  1475","OBJECT_ID":"2014-022H","OBJECT_NUMBER":"39687"},{"ORDINAL":"2","COMMENT":"GENERATED VIA SPACETRACK.ORG API","ORIGINATOR":"JSPOC","NORAD_CAT_ID":"39687","OBJECT_NAME":"DRAGON CRS-3 DEB","OBJECT_TYPE":"DEBRIS","CLASSIFICATION_TYPE":"U","INTLDES":"14022H","EPOCH":"2014-04-27 22:35:05","EPOCH_MICROSECONDS":"55071","MEAN_MOTION":"16.27973508","ECCENTRICITY":"0.0017204","INCLINATION":"51.6224","RA_OF_ASC_NODE":"345.5878","ARG_OF_PERICENTER":"274.1483","MEAN_ANOMALY":"85.8552","EPHEMERIS_TYPE":"0","ELEMENT_SET_NO":"26","REV_AT_EPOCH":"145","BSTAR":"0.0028316","MEAN_MOTION_DOT":"0.1151651","MEAN_MOTION_DDOT":"1.2089e-05","FILE":"1673551","TLE_LINE0":"0 DRAGON CRS-3 DEB","TLE_LINE1":"1 39687U 14022H   14117.94103073  .11516510  12089-4  28316-2 0   260","TLE_LINE2":"2 39687 051.6224 345.5878 0017204 274.1483 085.8552 16.27973508  1459","OBJECT_ID":"2014-022H","OBJECT_NUMBER":"39687"},{"ORDINAL":"3","COMMENT":"GENERATED VIA SPACETRACK.ORG API","ORIGINATOR":"JSPOC","NORAD_CAT_ID":"39687","OBJECT_NAME":"DRAGON CRS-3 DEB","OBJECT_TYPE":"DEBRIS","CLASSIFICATION_TYPE":"U","INTLDES":"14022H","EPOCH":"2014-04-27 21:06:57","EPOCH_MICROSECONDS":"389760","MEAN_MOTION":"16.26302333","ECCENTRICITY":"0.0016371","INCLINATION":"51.6289","RA_OF_ASC_NODE":"345.945","ARG_OF_PERICENTER":"271.1185","MEAN_ANOMALY":"90.1194","EPHEMERIS_TYPE":"0","ELEMENT_SET_NO":"25","REV_AT_EPOCH":"144","BSTAR":"0.0027355","MEAN_MOTION_DOT":"0.09516004","MEAN_MOTION_DDOT":"1.2026e-05","FILE":"1673420","TLE_LINE0":"0 DRAGON CRS-3 DEB","TLE_LINE1":"1 39687U 14022H   14117.87983090  .09516004  12026-4  27355-2 0   254","TLE_LINE2":"2 39687 051.6289 345.9450 0016371 271.1185 090.1194 16.26302333  1441","OBJECT_ID":"2014-022H","OBJECT_NUMBER":"39687"},{"ORDINAL":"4","COMMENT":"GENERATED VIA SPACETRACK.ORG API","ORIGINATOR":"JSPOC","NORAD_CAT_ID":"39687","OBJECT_NAME":"DRAGON CRS-3 DEB","OBJECT_TYPE":"DEBRIS","CLASSIFICATION_TYPE":"U","INTLDES":"14022H","EPOCH":"2014-04-27 19:38:09","EPOCH_MICROSECONDS":"621887","MEAN_MOTION":"16.23003314","ECCENTRICITY":"0.0011936","INCLINATION":"51.6253","RA_OF_ASC_NODE":"346.2448","ARG_OF_PERICENTER":"259.6884","MEAN_ANOMALY":"99.6636","EPHEMERIS_TYPE":"0","ELEMENT_SET_NO":"24","REV_AT_EPOCH":"143","BSTAR":"0.0021236","MEAN_MOTION_DOT":"0.0546963","MEAN_MOTION_DDOT":"1.1912e-05","FILE":"1673405","TLE_LINE0":"0 DRAGON CRS-3 DEB","TLE_LINE1":"1 39687U 14022H   14117.81816692  .05469630  11912-4  21236-2 0   243","TLE_LINE2":"2 39687 051.6253 346.2448 0011936 259.6884 099.6636 16.23003314  1430","OBJECT_ID":"2014-022H","OBJECT_NUMBER":"39687"},{"ORDINAL":"5","COMMENT":"GENERATED VIA SPACETRACK.ORG API","ORIGINATOR":"JSPOC","NORAD_CAT_ID":"39687","OBJECT_NAME":"DRAGON CRS-3 DEB","OBJECT_TYPE":"DEBRIS","CLASSIFICATION_TYPE":"U","INTLDES":"14022H","EPOCH":"2014-04-27 18:09:53","EPOCH_MICROSECONDS":"250048","MEAN_MOTION":"16.23547235","ECCENTRICITY":"0.001808","INCLINATION":"51.6262","RA_OF_ASC_NODE":"346.6043","ARG_OF_PERICENTER":"279.0311","MEAN_ANOMALY":"82.2323","EPHEMERIS_TYPE":"0","ELEMENT_SET_NO":"23","REV_AT_EPOCH":"142","BSTAR":"0.0027388","MEAN_MOTION_DOT":"0.0755772","MEAN_MOTION_DDOT":"1.1975e-05","FILE":"1673360","TLE_LINE0":"0 DRAGON CRS-3 DEB","TLE_LINE1":"1 39687U 14022H   14117.75686632  .07557720  11975-4  27388-2 0   237","TLE_LINE2":"2 39687 051.6262 346.6043 0018080 279.0311 082.2323 16.23547235  1428","OBJECT_ID":"2014-022H","OBJECT_NUMBER":"39687"}]